IRIDIUM 150             
1 43257U 18030J   24109.50804603  .00000548  00000+0  18864-3 0  9991
2 43257  86.3938 260.4550 0002078  86.4051 273.7382 14.34220294316972
IRIDIUM 143             
1 43258U 18030K   24109.48901290  .00000645  00000+0  22322-3 0  9991
2 43258  86.3940 260.5242 0001787  84.1160 276.0239 14.34222836316901
IRIDIUM 161             
1 43478U 18047C   24109.35207472  .00001118  00000+0  32645-3 0  9995
2 43478  86.4493  58.5485 0002419  87.8864 272.2614 14.43280794311218
IRIDIUM 152             
1 43479U 18047D   24109.39196635  .00000493  00000+0  16882-3 0  9998
2 43479  86.3967  58.3912 0002229  81.6421 278.5027 14.34219504309289
IRIDIUM 147             
1 43480U 18047E   24109.39831698  .00000686  00000+0  23779-3 0  9992
2 43480  86.3972  58.3787 0003824  66.9172 293.2427 14.34215429309288
IRIDIUM 110             
1 43481U 18047F   24109.40465338  .00000437  00000+0  14894-3 0  9991
2 43481  86.3971  58.4487 0002683  86.6978 273.4525 14.34219807309273
IRIDIUM 162             
1 43482U 18047G   24109.34576996  .00001195  00000+0  34910-3 0  9991
2 43482  86.4492  58.4521 0002487  89.8452 270.3034 14.43292354311201
IRIDIUM 160             
1 43569U 18061A   24109.28071975  .00000559  00000+0  19249-3 0  9994
2 43569  86.4020  26.8768 0002265  99.4223 260.7229 14.34218178300156
